[{"OBJECT_NAME":"COSMOS 2251 DEB","OBJECT_ID":"1993-036AKB","EPOCH":"2026-02-24T17:53:17.153952","MEAN_MOTION":14.34882577,"ECCENTRICITY":0.00273079,"INCLINATION":74.0331,"RA_OF_ASC_NODE":202.8312,"ARG_OF_PERICENTER":243.897,"MEAN_ANOMALY":180.0673,"EPHEMERIS_TYPE":0,"CLASSIFICATION_TYPE":"U","NORAD_CAT_ID":35433,"ELEMENT_SET_NO":999,"REV_AT_EPOCH":87642,"BSTAR":0.00028169265,"MEAN_MOTION_DOT":7.77e-6,"MEAN_MOTION_DDOT":0},{"OBJECT_NAME":"COSMOS 2251 DEB","OBJECT_ID":"1993-036AKC","EPOCH":"2026-03-01T16:55:23.747808","MEAN_MOTION":14.25998104,"ECCENTRICITY":0.00841742,"INCLINATION":74.0381,"RA_OF_ASC_NODE":71.0606,"ARG_OF_PERICENTER":124.535,"MEAN_ANOMALY":236.3781,"EPHEMERIS_TYPE":0,"CLASSIFICATION_TYPE":"U","NORAD_CAT_ID":35434,"ELEMENT_SET_NO":999,"REV_AT_EPOCH":87243,"BSTAR":0.00054116296,"MEAN_MOTION_DOT":1.316e-5,"MEAN_MOTION_DDOT":0},{"OBJECT_NAME":"COSMOS 2251 DEB","OBJECT_ID":"1993-036AKD","EPOCH":"2026-03-07T01:03:46.281024","MEAN_MOTION":14.81396416,"ECCENTRICITY":0.0007188,"INCLINATION":74.0083,"RA_OF_ASC_NODE":297.7607,"ARG_OF_PERICENTER":6.7115,"MEAN_ANOMALY":64.7432,"EPHEMERIS_TYPE":0,"CLASSIFICATION_TYPE":"U","NORAD_CAT_ID":35435,"ELEMENT_SET_NO":999,"REV_AT_EPOCH":88786,"BSTAR":0.0017121,"MEAN_MOTION_DOT":0.0001339,"MEAN_MOTION_DDOT":0},{"OBJECT_NAME":"COSMOS 2251 DEB","OBJECT_ID":"1993-036AKH","EPOCH":"2026-03-06T12:23:00.086208","MEAN_MOTION":13.93289547,"ECCENTRICITY":0.02411544,"INCLINATION":74.0202,"RA_OF_ASC_NODE":351.1264,"ARG_OF_PERICENTER":142.2262,"MEAN_ANOMALY":30.2017,"EPHEMERIS_TYPE":0,"CLASSIFICATION_TYPE":"U","NORAD_CAT_ID":35439,"ELEMENT_SET_NO":999,"REV_AT_EPOCH":85127,"BSTAR":0.0014570499,"MEAN_MOTION_DOT":2.397e-5,"MEAN_MOTION_DDOT":0},{"OBJECT_NAME":"COSMOS 2251 DEB","OBJECT_ID":"1993-036AKJ","EPOCH":"2026-02-08T11:39:10.701792","MEAN_MOTION":14.69247187,"ECCENTRICITY":0.00699538,"INCLINATION":74.0147,"RA_OF_ASC_NODE":95.6951,"ARG_OF_PERICENTER":224.5568,"MEAN_ANOMALY":134.9966,"EPHEMERIS_TYPE":0,"CLASSIFICATION_TYPE":"U","NORAD_CAT_ID":35440,"ELEMENT_SET_NO":999,"REV_AT_EPOCH":69613,"BSTAR":0.00049855646,"MEAN_MOTION_DOT":3.018e-5,"MEAN_MOTION_DDOT":0},{"OBJECT_NAME":"COSMOS 2251 DEB","OBJECT_ID":"1993-036AKK","EPOCH":"2026-03-05T12:49:04.490400","MEAN_MOTION":14.64119186,"ECCENTRICITY":0.0035844,"INCLINATION":74.134,"RA_OF_ASC_NODE":140.2183,"ARG_OF_PERICENTER":3.0172,"MEAN_ANOMALY":357.1205,"EPHEMERIS_TYPE":0,"CLASSIFICATION_TYPE":"U","NORAD_CAT_ID":35441,"ELEMENT_SET_NO":999,"REV_AT_EPOCH":88641,"BSTAR":0.0016787,"MEAN_MOTION_DOT":8.885e-5,"MEAN_MOTION_DDOT":0},{"OBJECT_NAME":"COSMOS 2251 DEB","OBJECT_ID":"1993-036AKL","EPOCH":"2026-03-05T14:51:34.998048","MEAN_MOTION":14.88512192,"ECCENTRICITY":0.0003558,"INCLINATION":74.0236,"RA_OF_ASC_NODE":294.1386,"ARG_OF_PERICENTER":257.0884,"MEAN_ANOMALY":102.9899,"EPHEMERIS_TYPE":0,"CLASSIFICATION_TYPE":"U","NORAD_CAT_ID":35442,"ELEMENT_SET_NO":999,"REV_AT_EPOCH":88584,"BSTAR":0.0023042,"MEAN_MOTION_DOT":0.00021455,"MEAN_MOTION_DDOT":0},{"OBJECT_NAME":"COSMOS 2251 DEB","OBJECT_ID":"1993-036AKM","EPOCH":"2026-03-03T16:53:20.607936","MEAN_MOTION":15.0706516,"ECCENTRICITY":0.0070562,"INCLINATION":73.9839,"RA_OF_ASC_NODE":166.0792,"ARG_OF_PERICENTER":292.3509,"MEAN_ANOMALY":67.0213,"EPHEMERIS_TYPE":0,"CLASSIFICATION_TYPE":"U","NORAD_CAT_ID":35443,"ELEMENT_SET_NO":999,"REV_AT_EPOCH":88093,"BSTAR":0.0067033,"MEAN_MOTION_DOT":0.00107943,"MEAN_MOTION_DDOT":0},{"OBJECT_NAME":"COSMOS 2251 DEB","OBJECT_ID":"1993-036AKP","EPOCH":"2026-03-07T03:58:59.566944","MEAN_MOTION":14.6101856,"ECCENTRICITY":0.0141545,"INCLINATION":74.0364,"RA_OF_ASC_NODE":138.8157,"ARG_OF_PERICENTER":206.9559,"MEAN_ANOMALY":152.4209,"EPHEMERIS_TYPE":0,"CLASSIFICATION_TYPE":"U","NORAD_CAT_ID":35445,"ELEMENT_SET_NO":999,"REV_AT_EPOCH":88561,"BSTAR":0.0018615,"MEAN_MOTION_DOT":0.00010513,"MEAN_MOTION_DDOT":0},{"OBJECT_NAME":"COSMOS 2251 DEB","OBJECT_ID":"1993-036AKQ","EPOCH":"2026-03-06T23:49:16.590432","MEAN_MOTION":14.54731359,"ECCENTRICITY":0.0077007,"INCLINATION":74.0476,"RA_OF_ASC_NODE":158.868,"ARG_OF_PERICENTER":256.1819,"MEAN_ANOMALY":103.0767,"EPHEMERIS_TYPE":0,"CLASSIFICATION_TYPE":"U","NORAD_CAT_ID":35446,"ELEMENT_SET_NO":999,"REV_AT_EPOCH":89233,"BSTAR":0.00014022,"MEAN_MOTION_DOT":5.93e-6,"MEAN_MOTION_DDOT":0},{"OBJECT_NAME":"COSMOS 2251 DEB","OBJECT_ID":"1993-036AKS","EPOCH":"2026-03-07T00:28:11.799264","MEAN_MOTION":14.55064646,"ECCENTRICITY":0.0010148,"INCLINATION":73.902,"RA_OF_ASC_NODE":288.7563,"ARG_OF_PERICENTER":91.3237,"MEAN_ANOMALY":268.9088,"EPHEMERIS_TYPE":0,"CLASSIFICATION_TYPE":"U","NORAD_CAT_ID":35448,"ELEMENT_SET_NO":999,"REV_AT_EPOCH":88560,"BSTAR":0.00078913,"MEAN_MOTION_DOT":3.378e-5,"MEAN_MOTION_DDOT":0},{"OBJECT_NAME":"COSMOS 2251 DEB","OBJECT_ID":"1993-036AKV","EPOCH":"2026-03-06T23:57:24.137856","MEAN_MOTION":15.49142005,"ECCENTRICITY":0.0031644,"INCLINATION":73.925,"RA_OF_ASC_NODE":278.9183,"ARG_OF_PERICENTER":145.4302,"MEAN_ANOMALY":214.8976,"EPHEMERIS_TYPE":0,"CLASSIFICATION_TYPE":"U","NORAD_CAT_ID":35451,"ELEMENT_SET_NO":999,"REV_AT_EPOCH":68704,"BSTAR":0.0018502,"MEAN_MOTION_DOT":0.00104011,"MEAN_MOTION_DDOT":0},{"OBJECT_NAME":"COSMOS 2251 DEB","OBJECT_ID":"1993-036AKX","EPOCH":"2026-02-22T06:34:48.461664","MEAN_MOTION":14.38296689,"ECCENTRICITY":0.00667285,"INCLINATION":73.9969,"RA_OF_ASC_NODE":248.3507,"ARG_OF_PERICENTER":2.7472,"MEAN_ANOMALY":357.4034,"EPHEMERIS_TYPE":0,"CLASSIFICATION_TYPE":"U","NORAD_CAT_ID":35453,"ELEMENT_SET_NO":999,"REV_AT_EPOCH":87247,"BSTAR":0.00052426014,"MEAN_MOTION_DOT":1.61e-5,"MEAN_MOTION_DDOT":0},{"OBJECT_NAME":"COSMOS 2251 DEB","OBJECT_ID":"1993-036AKZ","EPOCH":"2026-03-06T15:06:12.592224","MEAN_MOTION":14.50176622,"ECCENTRICITY":0.01016049,"INCLINATION":74.0271,"RA_OF_ASC_NODE":137.2062,"ARG_OF_PERICENTER":222.7029,"MEAN_ANOMALY":136.6205,"EPHEMERIS_TYPE":0,"CLASSIFICATION_TYPE":"U","NORAD_CAT_ID":35455,"ELEMENT_SET_NO":999,"REV_AT_EPOCH":87759,"BSTAR":0.0011145361,"MEAN_MOTION_DOT":4.602e-5,"MEAN_MOTION_DDOT":0},{"OBJECT_NAME":"COSMOS 2251 DEB","OBJECT_ID":"1993-036ALA","EPOCH":"2026-03-05T09:13:54.470208","MEAN_MOTION":14.71428418,"ECCENTRICITY":0.0063697,"INCLINATION":73.9506,"RA_OF_ASC_NODE":316.2576,"ARG_OF_PERICENTER":147.027,"MEAN_ANOMALY":213.49,"EPHEMERIS_TYPE":0,"CLASSIFICATION_TYPE":"U","NORAD_CAT_ID":35456,"ELEMENT_SET_NO":999,"REV_AT_EPOCH":67090,"BSTAR":0.0017143,"MEAN_MOTION_DOT":0.00010948,"MEAN_MOTION_DDOT":0},{"OBJECT_NAME":"COSMOS 2251 DEB","OBJECT_ID":"1993-036ALD","EPOCH":"2026-02-28T05:50:07.481760","MEAN_MOTION":14.37611865,"ECCENTRICITY":0.0017967,"INCLINATION":73.8706,"RA_OF_ASC_NODE":43.2127,"ARG_OF_PERICENTER":326.5251,"MEAN_ANOMALY":33.4765,"EPHEMERIS_TYPE":0,"CLASSIFICATION_TYPE":"U","NORAD_CAT_ID":35459,"ELEMENT_SET_NO":999,"REV_AT_EPOCH":59475,"BSTAR":0.00028955,"MEAN_MOTION_DOT":8.43e-6,"MEAN_MOTION_DDOT":0}]
