COSMOS 2251 DEB         
1 35433U 93036AKB 26055.74533743  .00000777  00000+0  28169-3 0  9992
2 35433  74.0331 202.8312 0027307 243.8970 180.0673 14.34882577876429
COSMOS 2251 DEB         
1 35434U 93036AKC 26060.70513597  .00001316  00000+0  54116-3 0  9991
2 35434  74.0381  71.0606 0084174 124.5350 236.3781 14.25998104872435
COSMOS 2251 DEB         
1 35435U 93036AKD 26066.04428566  .00013390  00000+0  17121-2 0  9995
2 35435  74.0083 297.7607 0007188   6.7115  64.7432 14.81396416887862
COSMOS 2251 DEB         
1 35439U 93036AKH 26065.51597322  .00002397  00000+0  14570-2 0  9997
2 35439  74.0202 351.1264 0241154 142.2262  30.2017 13.93289547851276
COSMOS 2251 DEB         
1 35440U 93036AKJ 26039.48554053  .00003018  00000+0  49856-3 0  9997
2 35440  74.0147  95.6951 0069953 224.5568 134.9966 14.69247187696132
COSMOS 2251 DEB         
1 35441U 93036AKK 26064.53407975  .00008885  00000+0  16787-2 0  9995
2 35441  74.1340 140.2183 0035844   3.0172 357.1205 14.64119186886415
COSMOS 2251 DEB         
1 35442U 93036AKL 26064.61915507  .00021455  00000+0  23042-2 0  9990
2 35442  74.0236 294.1386 0003558 257.0884 102.9899 14.88512192885842
COSMOS 2251 DEB         
1 35443U 93036AKM 26062.70371074  .00107943  00000+0  67033-2 0  9999
2 35443  73.9839 166.0792 0070562 292.3509  67.0213 15.07065160880939
COSMOS 2251 DEB         
1 35445U 93036AKP 26066.16596721  .00010513  00000+0  18615-2 0  9991
2 35445  74.0364 138.8157 0141545 206.9559 152.4209 14.61018560885619
COSMOS 2251 DEB         
1 35446U 93036AKQ 26065.99255313  .00000593  00000+0  14022-3 0  9997
2 35446  74.0476 158.8680 0077007 256.1819 103.0767 14.54731359892332
COSMOS 2251 DEB         
1 35448U 93036AKS 26066.01958101  .00003378  00000+0  78913-3 0  9991
2 35448  73.9020 288.7563 0010148  91.3237 268.9088 14.55064646885604
COSMOS 2251 DEB         
1 35451U 93036AKV 26065.99819604  .00104011  00000+0  18502-2 0  9998
2 35451  73.9250 278.9183 0031644 145.4302 214.8976 15.49142005687044
COSMOS 2251 DEB         
1 35453U 93036AKX 26053.27417201  .00001610  00000+0  52426-3 0  9990
2 35453  73.9969 248.3507 0066728   2.7472 357.4034 14.38296689872475
COSMOS 2251 DEB         
1 35455U 93036AKZ 26065.62931241  .00004602  00000+0  11145-2 0  9995
2 35455  74.0271 137.2062 0101604 222.7029 136.6205 14.50176622877595
COSMOS 2251 DEB         
1 35456U 93036ALA 26064.38465822  .00010948  00000+0  17143-2 0  9999
2 35456  73.9506 316.2576 0063697 147.0270 213.4900 14.71428418670908
COSMOS 2251 DEB         
1 35459U 93036ALD 26059.24314215  .00000843  00000+0  28955-3 0  9997
2 35459  73.8706  43.2127 0017967 326.5251  33.4765 14.37611865594752
